{
  "norad_id": 57791,
  "name": "STARLINK-30367",
  "history": [
    {
      "epoch": "2026-03-28T16:40:40.679328Z",
      "apogee_km": 483.45749442280794,
      "perigee_km": 482.7672527358254,
      "latitude_deg": 2.8513296041308956e-05,
      "longitude_deg": 10.841657617845264,
      "height_km": 482.5967462847463,
      "semi_major_axis_km": 6861.249373579316,
      "eccentricity": 5.03e-05,
      "inclination_deg": 42.9987,
      "raan_deg": 87.1228,
      "arg_perigee_deg": 32.6307,
      "mean_anomaly_deg": 327.4576,
      "mean_motion_rev_day": 15.27558868
    },
    {
      "epoch": "2026-03-29T00:31:27.579072Z",
      "apogee_km": 483.54668445537845,
      "perigee_km": 482.6903997637228,
      "latitude_deg": 9.59114038695223e-07,
      "longitude_deg": -109.02442607384332,
      "height_km": 482.6861526309019,
      "semi_major_axis_km": 6861.25554210955,
      "eccentricity": 6.24e-05,
      "inclination_deg": 42.9965,
      "raan_deg": 85.2744,
      "arg_perigee_deg": 299.0624,
      "mean_anomaly_deg": 61.0165,
      "mean_motion_rev_day": 15.27556808
    },
    {
      "epoch": "2026-03-30T06:20:24.491904Z",
      "apogee_km": 483.5850885860855,
      "perigee_km": 482.3835690189853,
      "latitude_deg": 3.440104032357736e-05,
      "longitude_deg": 155.50108181904145,
      "height_km": 482.72283084222425,
      "semi_major_axis_km": 6861.121328802535,
      "eccentricity": 8.756e-05,
      "inclination_deg": 43.0024,
      "raan_deg": 78.2615,
      "arg_perigee_deg": 273.6277,
      "mean_anomaly_deg": 86.4475,
      "mean_motion_rev_day": 15.2760163
    },
    {
      "epoch": "2026-03-30T11:02:52.119744Z",
      "apogee_km": 483.45813414177155,
      "perigee_km": 482.44790724712493,
      "latitude_deg": 2.2738887529049404e-05,
      "longitude_deg": 83.58511629335469,
      "height_km": 482.7783278899741,
      "semi_major_axis_km": 6861.090020694448,
      "eccentricity": 7.362e-05,
      "inclination_deg": 43.0009,
      "raan_deg": 77.154,
      "arg_perigee_deg": 264.4216,
      "mean_anomaly_deg": 95.6552,
      "mean_motion_rev_day": 15.27612086
    },
    {
      "epoch": "2026-03-30T15:45:20.955456Z",
      "apogee_km": 483.65813765681014,
      "perigee_km": 482.4498819199871,
      "latitude_deg": 3.4828586645013433e-06,
      "longitude_deg": 11.663496088095735,
      "height_km": 482.7904604017406,
      "semi_major_axis_km": 6861.191009788398,
      "eccentricity": 8.805e-05,
      "inclination_deg": 43.0024,
      "raan_deg": 76.0459,
      "arg_perigee_deg": 273.8034,
      "mean_anomaly_deg": 86.2717,
      "mean_motion_rev_day": 15.27578359
    },
    {
      "epoch": "2026-03-31T15:17:40.685280Z",
      "apogee_km": 483.61409064635427,
      "perigee_km": 482.5135540344518,
      "latitude_deg": 9.894601348967203e-06,
      "longitude_deg": 12.074691883140812,
      "height_km": 483.0027554260062,
      "semi_major_axis_km": 6861.200822340403,
      "eccentricity": 8.02e-05,
      "inclination_deg": 43.0017,
      "raan_deg": 70.506,
      "arg_perigee_deg": 252.811,
      "mean_anomaly_deg": 107.2654,
      "mean_motion_rev_day": 15.27575082
    },
    {
      "epoch": "2026-04-01T14:50:01.823424Z",
      "apogee_km": 483.8244220821998,
      "perigee_km": 482.335537997531,
      "latitude_deg": 2.202813792936166e-05,
      "longitude_deg": 12.480809693603359,
      "height_km": 483.15364587695836,
      "semi_major_axis_km": 6861.216980039865,
      "eccentricity": 0.0001085,
      "inclination_deg": 43.0014,
      "raan_deg": 64.9669,
      "arg_perigee_deg": 246.4704,
      "mean_anomaly_deg": 113.6034,
      "mean_motion_rev_day": 15.27569686
    },
    {
      "epoch": "2026-04-02T14:22:22.814688Z",
      "apogee_km": 483.6929727397119,
      "perigee_km": 482.3877023630175,
      "latitude_deg": 1.400442990313187e-05,
      "longitude_deg": 12.885019299544906,
      "height_km": 482.993961145975,
      "semi_major_axis_km": 6861.177337551365,
      "eccentricity": 9.512e-05,
      "inclination_deg": 43.0057,
      "raan_deg": 59.4253,
      "arg_perigee_deg": 254.2884,
      "mean_anomaly_deg": 105.7863,
      "mean_motion_rev_day": 15.27582925
    },
    {
      "epoch": "2026-04-03T13:54:43.346304Z",
      "apogee_km": 483.35642483802803,
      "perigee_km": 482.7251964794468,
      "latitude_deg": 2.8774465554465574e-07,
      "longitude_deg": 13.295542630055866,
      "height_km": 482.5450157759737,
      "semi_major_axis_km": 6861.177810658737,
      "eccentricity": 4.6e-05,
      "inclination_deg": 43.0072,
      "raan_deg": 53.8881,
      "arg_perigee_deg": 329.6199,
      "mean_anomaly_deg": 30.4626,
      "mean_motion_rev_day": 15.27582767
    },
    {
      "epoch": "2026-04-04T13:27:04.970880Z",
      "apogee_km": 483.59248659363766,
      "perigee_km": 482.5303730767,
      "latitude_deg": 2.4800571004613013e-06,
      "longitude_deg": 13.703115654394432,
      "height_km": 482.8225098572651,
      "semi_major_axis_km": 6861.198429835169,
      "eccentricity": 7.74e-05,
      "inclination_deg": 43.0019,
      "raan_deg": 48.3525,
      "arg_perigee_deg": 271.6499,
      "mean_anomaly_deg": 88.4264,
      "mean_motion_rev_day": 15.27575881
    },
    {
      "epoch": "2026-04-05T12:59:25.688256Z",
      "apogee_km": 483.5304536577205,
      "perigee_km": 482.5602824708767,
      "latitude_deg": 2.5489604314897148e-05,
      "longitude_deg": 14.109100404127833,
      "height_km": 482.8097340681528,
      "semi_major_axis_km": 6861.182368064298,
      "eccentricity": 7.07e-05,
      "inclination_deg": 43.0017,
      "raan_deg": 42.8115,
      "arg_perigee_deg": 271.4077,
      "mean_anomaly_deg": 88.6694,
      "mean_motion_rev_day": 15.27581245
    },
    {
      "epoch": "2026-04-06T04:40:59.504160Z",
      "apogee_km": 483.6676536126661,
      "perigee_km": 482.42317234660095,
      "latitude_deg": 9.535633085449925e-06,
      "longitude_deg": 134.3811051024249,
      "height_km": 482.78815298188596,
      "semi_major_axis_km": 6861.182412979633,
      "eccentricity": 9.069e-05,
      "inclination_deg": 43.0026,
      "raan_deg": 39.1189,
      "arg_perigee_deg": 273.1165,
      "mean_anomaly_deg": 86.9583,
      "mean_motion_rev_day": 15.2758123
    },
    {
      "epoch": "2026-04-07T12:04:07.860000Z",
      "apogee_km": 483.563477864569,
      "perigee_km": 482.61662853122743,
      "latitude_deg": 2.613685723349653e-05,
      "longitude_deg": 14.922340308674643,
      "height_km": 482.4851921191017,
      "semi_major_axis_km": 6861.2270531978975,
      "eccentricity": 6.9e-05,
      "inclination_deg": 43.0025,
      "raan_deg": 31.7339,
      "arg_perigee_deg": 323.5897,
      "mean_anomaly_deg": 36.4908,
      "mean_motion_rev_day": 15.27566322
    },
    {
      "epoch": "2026-04-07T19:54:54.168768Z",
      "apogee_km": 484.9150663820792,
      "perigee_km": 481.23608419920765,
      "latitude_deg": 1.938676886595031e-06,
      "longitude_deg": -104.9400715097627,
      "height_km": 482.74750043220064,
      "semi_major_axis_km": 6861.212575290643,
      "eccentricity": 0.0002681,
      "inclination_deg": 43.0065,
      "raan_deg": 29.8867,
      "arg_perigee_deg": 273.3179,
      "mean_anomaly_deg": 86.7366,
      "mean_motion_rev_day": 15.27571157
    },
    {
      "epoch": "2026-04-08T05:19:50.467296Z",
      "apogee_km": 484.1939179705414,
      "perigee_km": 482.0352310001763,
      "latitude_deg": 2.3079808950511504e-05,
      "longitude_deg": 111.22468611641452,
      "height_km": 482.68554124397235,
      "semi_major_axis_km": 6861.251574485358,
      "eccentricity": 0.00015731,
      "inclination_deg": 43.0036,
      "raan_deg": 27.6727,
      "arg_perigee_deg": 281.0181,
      "mean_anomaly_deg": 79.0494,
      "mean_motion_rev_day": 15.27558133
    },
    {
      "epoch": "2026-04-09T11:08:48.746112Z",
      "apogee_km": 483.9723991769879,
      "perigee_km": 482.171469055962,
      "latitude_deg": 3.709843442913879e-05,
      "longitude_deg": 15.742561560575878,
      "height_km": 482.73304296172137,
      "semi_major_axis_km": 6861.208934116475,
      "eccentricity": 0.00013124,
      "inclination_deg": 43.002,
      "raan_deg": 20.6579,
      "arg_perigee_deg": 277.3853,
      "mean_anomaly_deg": 82.685,
      "mean_motion_rev_day": 15.27572373
    },
    {
      "epoch": "2026-04-10T02:50:20.776128Z",
      "apogee_km": 484.3736918001723,
      "perigee_km": 481.5817669944845,
      "latitude_deg": -3.923236751506492e-05,
      "longitude_deg": 136.0215629151256,
      "height_km": 482.7176596802738,
      "semi_major_axis_km": 6861.114729397328,
      "eccentricity": 0.00020346,
      "inclination_deg": 43.0024,
      "raan_deg": 16.9649,
      "arg_perigee_deg": 271.5411,
      "mean_anomaly_deg": 88.5207,
      "mean_motion_rev_day": 15.27603834
    },
    {
      "epoch": "2026-04-11T10:13:29.703072Z",
      "apogee_km": 485.0262964103413,
      "perigee_km": 481.16067915352505,
      "latitude_deg": 1.2924738970170537e-05,
      "longitude_deg": 16.56025062705344,
      "height_km": 482.8789910150669,
      "semi_major_axis_km": 6861.230487781933,
      "eccentricity": 0.0002817,
      "inclination_deg": 43.0014,
      "raan_deg": 9.5797,
      "arg_perigee_deg": 269.7744,
      "mean_anomaly_deg": 90.2785,
      "mean_motion_rev_day": 15.27565175
    },
    {
      "epoch": "2026-04-13T03:01:35.022720Z",
      "apogee_km": 484.40216848814543,
      "perigee_km": 481.69995818128064,
      "latitude_deg": 1.531375946052419e-05,
      "longitude_deg": 113.26192949886185,
      "height_km": 482.94072690024655,
      "semi_major_axis_km": 6861.188063334713,
      "eccentricity": 0.00019692,
      "inclination_deg": 43.0021,
      "raan_deg": 359.9792,
      "arg_perigee_deg": 265.2322,
      "mean_anomaly_deg": 94.8305,
      "mean_motion_rev_day": 15.27579343
    }
  ]
}